STARLINK-38005          
1 69677U 26145A   26195.54143019  .00093772  00000+0  62172-3 0  9991
2 69677  97.2832  42.3433 0001554  96.4427 263.7016 15.75225127  3076
STARLINK-38009          
1 69678U 26145B   26195.53966726  .00054000  00000+0  36062-3 0  9999
2 69678  97.2831  42.3464 0001446  54.8458 305.2942 15.75189602  3079
STARLINK-37998          
1 69679U 26145C   26195.09208086  .05837906  00000+0  25096-1 0  9991
2 69679  97.2835  41.8847 0025649 306.1797  53.7099 15.80162191  3004
STARLINK-37994          
1 69680U 26145D   26195.53860885  .00106790  00000+0  70686-3 0  9995
2 69680  97.2830  42.3478 0001111  71.4534 288.6852 15.75224890  3078
STARLINK-37992          
1 69681U 26145E   26195.53825428  .00090859  00000+0  60242-3 0  9995
2 69681  97.2814  42.3476 0001973 104.0695 256.0790 15.75232997  3073
STARLINK-37997          
1 69682U 26145F   26195.53755051  .00226350  00000+0  14723-2 0  9999
2 69682  97.2831  42.3494 0000878  98.7726 261.3638 15.75287775  3074
STARLINK-37990          
1 69683U 26145G   26195.53790336  .00102132  00000+0  67639-3 0  9991
2 69683  97.2833  42.3482 0001018  70.2318 289.9057 15.75226430  3075
STARLINK-37951          
1 69684U 26145H   26195.47364640  .01609513  00000+0  98919-2 0  9990
2 69684  97.2837  42.2821 0004831  17.6100 342.5332 15.74490714  3064
STARLINK-37957          
1 69685U 26145J   26195.53578531  .00132497  00000+0  87407-3 0  9996
2 69685  97.2839  42.3526 0001154  39.6354 320.4995 15.75227361  3078
STARLINK-37968          
1 69686U 26145K   26195.52978694  .00207229  00000+0  13513-2 0  9992
2 69686  97.2829  42.3606 0001341 107.0227 253.1186 15.75284399  3072
STARLINK-37977          
1 69687U 26145L   26195.52908032  .00226116  00000+0  14705-2 0  9992
2 69687  97.2841  42.3623 0001294 116.5853 243.5545 15.75293332  3072
STARLINK-37908          
1 69688U 26145M   26195.52696413  .00125628  00000+0  82851-3 0  9994
2 69688  97.2844  42.3659 0001498  92.2317 267.9120 15.75253675  3071
STARLINK-37979          
1 69689U 26145N   26195.52660954  .00216815  00000+0  14114-2 0  9991
2 69689  97.2838  42.3658 0002070 121.5542 238.5926 15.75295734  3077
STARLINK-37940          
1 69690U 26145P   26195.52555304  .00167789  00000+0  11004-2 0  9995
2 69690  97.2828  42.3672 0001035  68.2670 291.8706 15.75261512  3078
STARLINK-37961          
1 69691U 26145Q   26195.52237609  .00206573  00000+0  13476-2 0  9991
2 69691  97.2838  42.3710 0000835  81.9161 278.2200 15.75275616  3075
STARLINK-37787          
1 69692U 26145R   26195.52025878  .00205666  00000+0  13414-2 0  9999
2 69692  97.2826  42.3732 0001360 105.5090 254.6325 15.75282746  3073
STARLINK-37962          
1 69693U 26145S   26195.51849500  .00174823  00000+0  11464-2 0  9998
2 69693  97.2835  42.3763 0001147  91.5434 268.5963 15.75245270  3070
STARLINK-37953          
1 69694U 26145T   26195.52131746  .00120039  00000+0  79257-3 0  9991
2 69694  97.2832  42.3724 0001177  93.6617 266.4783 15.75243504  3079
STARLINK-37926          
1 69695U 26145U   26195.52061076  .00094607  00000+0  62652-3 0  9992
2 69695  97.2811  42.3719 0002086  97.1417 263.0086 15.75249030  3077
STARLINK-37959          
1 69696U 26145V   26195.51955338  .00126655  00000+0  83627-3 0  9999
2 69696  97.2832  42.3739 0001184 118.2894 241.8491 15.75223688  3070
STARLINK-37976          
1 69697U 26145W   26195.58025955  .00135870  00000+0  89605-3 0  9991
2 69697  97.2841  42.4451 0001376  85.4088 274.7335 15.75224321  3084
STARLINK-37912          
1 69698U 26145X   26195.51567133  .00145836  00000+0  95981-3 0  9991
2 69698  97.2836  42.3805 0001273  90.4264 269.7147 15.75243072  3077
STARLINK-37974          
1 69699U 26145Y   26195.57849573  .00079670  00000+0  52965-3 0  9996
2 69699  97.2845  42.4478 0001079  77.7143 282.4243 15.75207413  3082
STARLINK-37955          
1 69700U 26145Z   26195.57602582  .00027399  00000+0  18399-3 0  9990
2 69700  97.2839  42.4513 0001460  92.5495 267.5937 15.75187878  3083
STRIX-8                 
1 69701U 26146A   26195.55498883  .00002321  00000+0  17668-3 0  9993
2 69701  41.9903  16.6392 0007225  18.0327 342.0755 15.04430735  2689
STARLINK-38055          
1 69704U 26147A   26195.59952278  .00102767  00000+0  53079-3 0  9995
2 69704  97.2848 231.9531 0003857  88.5536 271.6174 15.80814634  3762
STARLINK-37898          
1 69705U 26147B   26195.59869707  .00107545  00000+0  55487-3 0  9994
2 69705  97.2853 231.9548 0003564  71.9575 288.2082 15.80826366  3768
STARLINK-37970          
1 69706U 26147C   26195.59794561  .00113864  00000+0  58698-3 0  9998
2 69706  97.2847 231.9557 0003065  85.6787 274.4832 15.80829580  3766
